{
  "type": "FeatureCollection",
  "features": [
    {
      "type": "Feature",
      "properties": {
        "norad_id": 33913,
        "name": "COSMOS 2251 DEB",
        "group": "cosmos-2251-debris",
        "lat": -69.58411587833052,
        "lon": 55.703594723608624,
        "alt_km": 708.1514985569265,
        "timestamp": "2025-12-11T18:59:46.468206+00:00",
        "meta_object_name": "COSMOS 2251 DEB",
        "meta_object_id": "1993-036DS",
        "meta_epoch": "2025-12-11T00:17:35.719008",
        "meta_mean_motion": 14.48474621,
        "meta_eccentricity": 0.00481713,
        "meta_inclination": 74.0334,
        "meta_ra_of_asc_node": 186.8819,
        "meta_arg_of_pericenter": 289.7669,
        "meta_mean_anomaly": 225.6348,
        "meta_ephemeris_type": 0,
        "meta_classification_type": "U",
        "meta_norad_cat_id": 33913,
        "meta_element_set_no": 999,
        "meta_rev_at_epoch": 88432,
        "meta_bstar": 0.00075304879,
        "meta_mean_motion_dot": 2.839e-05,
        "meta_mean_motion_ddot": 0,
        "tle_line1": "1 33913U 93036DS  25345.01221897  .00002839  00000+0  75305-3 0  9993",
        "tle_line2": "2 33913  74.0334 186.8819 0048171 289.7669 225.6348 14.48474621884327"
      },
      "geometry": {
        "type": "Point",
        "coordinates": [
          55.703594723608624,
          -69.58411587833052
        ]
      }
    },
    {
      "type": "Feature",
      "properties": {
        "norad_id": 33914,
        "name": "COSMOS 2251 DEB",
        "group": "cosmos-2251-debris",
        "lat": 51.95149765958716,
        "lon": 175.28772683509416,
        "alt_km": 765.9427580758975,
        "timestamp": "2025-12-11T18:59:46.468216+00:00",
        "meta_object_name": "COSMOS 2251 DEB",
        "meta_object_id": "1993-036DT",
        "meta_epoch": "2025-12-11T02:43:40.947168",
        "meta_mean_motion": 13.71983167,
        "meta_eccentricity": 0.03013019,
        "meta_inclination": 74.0914,
        "meta_ra_of_asc_node": 17.7747,
        "meta_arg_of_pericenter": 121.2098,
        "meta_mean_anomaly": 256.7792,
        "meta_ephemeris_type": 0,
        "meta_classification_type": "U",
        "meta_norad_cat_id": 33914,
        "meta_element_set_no": 999,
        "meta_rev_at_epoch": 84059,
        "meta_bstar": 0.00055433472,
        "meta_mean_motion_dot": 6.76e-06,
        "meta_mean_motion_ddot": 0,
        "tle_line1": "1 33914U 93036DT  25345.11366837  .00000676  00000+0  55433-3 0  9996",
        "tle_line2": "2 33914  74.0914  17.7747 0301301 121.2098 256.7792 13.71983167840591"
      },
      "geometry": {
        "type": "Point",
        "coordinates": [
          175.28772683509416,
          51.95149765958716
        ]
      }
    },
    {
      "type": "Feature",
      "properties": {
        "norad_id": 33915,
        "name": "COSMOS 2251 DEB",
        "group": "cosmos-2251-debris",
        "lat": 28.409917281134714,
        "lon": 44.74775236418535,
        "alt_km": 783.975570694467,
        "timestamp": "2025-12-11T18:59:46.468227+00:00",
        "meta_object_name": "COSMOS 2251 DEB",
        "meta_object_id": "1993-036DU",
        "meta_epoch": "2025-12-11T05:46:16.074048",
        "meta_mean_motion": 14.35077874,
        "meta_eccentricity": 0.01044691,
        "meta_inclination": 74.0443,
        "meta_ra_of_asc_node": 36.8546,
        "meta_arg_of_pericenter": 129.8148,
        "meta_mean_anomaly": 295.4089,
        "meta_ephemeris_type": 0,
        "meta_classification_type": "U",
        "meta_norad_cat_id": 33915,
        "meta_element_set_no": 999,
        "meta_rev_at_epoch": 87736,
        "meta_bstar": 0.00058509161,
        "meta_mean_motion_dot": 1.75e-05,
        "meta_mean_motion_ddot": 0,
        "tle_line1": "1 33915U 93036DU  25345.24046382  .00001750  00000+0  58509-3 0  9992",
        "tle_line2": "2 33915  74.0443  36.8546 0104469 129.8148 295.4089 14.35077874877368"
      },
      "geometry": {
        "type": "Point",
        "coordinates": [
          44.74775236418535,
          28.409917281134714
        ]
      }
    },
    {
      "type": "Feature",
      "properties": {
        "norad_id": 33916,
        "name": "COSMOS 2251 DEB",
        "group": "cosmos-2251-debris",
        "lat": 39.527344828661406,
        "lon": 55.79323613674909,
        "alt_km": 1239.427830262941,
        "timestamp": "2025-12-11T18:59:46.468237+00:00",
        "meta_object_name": "COSMOS 2251 DEB",
        "meta_object_id": "1993-036DV",
        "meta_epoch": "2025-12-11T06:53:06.572832",
        "meta_mean_motion": 13.68611738,
        "meta_eccentricity": 0.03253689,
        "meta_inclination": 74.0529,
        "meta_ra_of_asc_node": 42.9759,
        "meta_arg_of_pericenter": 215.4241,
        "meta_mean_anomaly": 221.2052,
        "meta_ephemeris_type": 0,
        "meta_classification_type": "U",
        "meta_norad_cat_id": 33916,
        "meta_element_set_no": 999,
        "meta_rev_at_epoch": 83871,
        "meta_bstar": 0.00073083674,
        "meta_mean_motion_dot": 8.85e-06,
        "meta_mean_motion_ddot": 0,
        "tle_line1": "1 33916U 93036DV  25345.28688163  .00000885  00000+0  73084-3 0  9999",
        "tle_line2": "2 33916  74.0529  42.9759 0325368 215.4241 221.2052 13.68611738838718"
      },
      "geometry": {
        "type": "Point",
        "coordinates": [
          55.79323613674909,
          39.527344828661406
        ]
      }
    },
    {
      "type": "Feature",
      "properties": {
        "norad_id": 33917,
        "name": "COSMOS 2251 DEB",
        "group": "cosmos-2251-debris",
        "lat": 63.156453604641804,
        "lon": -90.31104217227069,
        "alt_km": 1084.8712721769461,
        "timestamp": "2025-12-11T18:59:46.468248+00:00",
        "meta_object_name": "COSMOS 2251 DEB",
        "meta_object_id": "1993-036DW",
        "meta_epoch": "2025-12-11T02:38:28.754592",
        "meta_mean_motion": 13.69354695,
        "meta_eccentricity": 0.03312557,
        "meta_inclination": 74.1069,
        "meta_ra_of_asc_node": 125.0655,
        "meta_arg_of_pericenter": 226.3815,
        "meta_mean_anomaly": 130.9388,
        "meta_ephemeris_type": 0,
        "meta_classification_type": "U",
        "meta_norad_cat_id": 33917,
        "meta_element_set_no": 999,
        "meta_rev_at_epoch": 83711,
        "meta_bstar": 0.0010468995,
        "meta_mean_motion_dot": 1.314e-05,
        "meta_mean_motion_ddot": 0,
        "tle_line1": "1 33917U 93036DW  25345.11005503  .00001314  00000+0  10469-2 0  9998",
        "tle_line2": "2 33917  74.1069 125.0655 0331255 226.3815 130.9388 13.69354695837115"
      },
      "geometry": {
        "type": "Point",
        "coordinates": [
          -90.31104217227069,
          63.156453604641804
        ]
      }
    },
    {
      "type": "Feature",
      "properties": {
        "norad_id": 33920,
        "name": "COSMOS 2251 DEB",
        "group": "cosmos-2251-debris",
        "lat": -67.39827884787677,
        "lon": 163.58095084606123,
        "alt_km": 689.3105489899071,
        "timestamp": "2025-12-11T18:59:46.468258+00:00",
        "meta_object_name": "COSMOS 2251 DEB",
        "meta_object_id": "1993-036DZ",
        "meta_epoch": "2025-12-09T21:22:37.466688",
        "meta_mean_motion": 14.58191466,
        "meta_eccentricity": 0.00383772,
        "meta_inclination": 74.0619,
        "meta_ra_of_asc_node": 303.8409,
        "meta_arg_of_pericenter": 310.7658,
        "meta_mean_anomaly": 49.0178,
        "meta_ephemeris_type": 0,
        "meta_classification_type": "U",
        "meta_norad_cat_id": 33920,
        "meta_element_set_no": 999,
        "meta_rev_at_epoch": 88073,
        "meta_bstar": 0.0030275677,
        "meta_mean_motion_dot": 0.0001411,
        "meta_mean_motion_ddot": 0,
        "tle_line1": "1 33920U 93036DZ  25343.89071142  .00014110  00000+0  30276-2 0  9993",
        "tle_line2": "2 33920  74.0619 303.8409 0038377 310.7658  49.0178 14.58191466880731"
      },
      "geometry": {
        "type": "Point",
        "coordinates": [
          163.58095084606123,
          -67.39827884787677
        ]
      }
    },
    {
      "type": "Feature",
      "properties": {
        "norad_id": 33922,
        "name": "COSMOS 2251 DEB",
        "group": "cosmos-2251-debris",
        "lat": 61.37813537419371,
        "lon": -178.8455370353243,
        "alt_km": 736.969852513389,
        "timestamp": "2025-12-11T18:59:46.468269+00:00",
        "meta_object_name": "COSMOS 2251 DEB",
        "meta_object_id": "1993-036EB",
        "meta_epoch": "2025-12-11T04:36:01.507968",
        "meta_mean_motion": 14.49497352,
        "meta_eccentricity": 0.00232478,
        "meta_inclination": 74.0467,
        "meta_ra_of_asc_node": 150.6658,
        "meta_arg_of_pericenter": 261.4494,
        "meta_mean_anomaly": 275.7185,
        "meta_ephemeris_type": 0,
        "meta_classification_type": "U",
        "meta_norad_cat_id": 33922,
        "meta_element_set_no": 999,
        "meta_rev_at_epoch": 88555,
        "meta_bstar": 0.00069792419,
        "meta_mean_motion_dot": 2.657e-05,
        "meta_mean_motion_ddot": 0,
        "tle_line1": "1 33922U 93036EB  25345.19168412  .00002657  00000+0  69792-3 0  9996",
        "tle_line2": "2 33922  74.0467 150.6658 0023247 261.4494 275.7185 14.49497352885552"
      },
      "geometry": {
        "type": "Point",
        "coordinates": [
          -178.8455370353243,
          61.37813537419371
        ]
      }
    }
  ]
}